SWARM A                 
1 39452U 13067B   26168.15514463  .00008317  00000+0  14286-3 0  9994
2 39452  87.3323  56.2540 0003011  95.2164 264.9441 15.50953053706240
SWARM C                 
1 39453U 13067C   26168.15503140  .00008275  00000+0  14214-3 0  9999
2 39453  87.3323  54.8350 0002997  95.3573 264.8030 15.50951547706206
BRITE-CA1 (TORONTO)     
1 40020U 14033L   26168.10572866  .00000592  00000+0  96897-4 0  9993
2 40020  97.9739 297.0351 0077213 277.2847  81.9589 14.72676636642208
OCO 2                   
1 40059U 14035A   26168.15548196  .00000305  00000+0  77761-4 0  9992
2 40059  98.2018 109.4490 0001499  85.1950 274.9420 14.57111126636042
BRITE-PL2 (HEWELIUSZ)   
1 40119U 14049B   26167.30201476  .00001432  00000+0  13759-3 0  9995
2 40119  97.9097 279.2951 0015255 111.1162 249.1690 14.94590565641318
MMS 1                   
1 40482U 15011A   26168.25004630 -.00000762  00000+0  00000+0 0  9993
2 40482  72.2024 348.7735 8324646 167.4346 304.9453  0.28316255  1380
MMS 2                   
1 40483U 15011B   26168.25004630 -.00000762  00000+0  00000+0 0  9994
2 40483  72.2026 348.7757 8325428 167.4402 304.9339  0.28316304  1387
MMS 3                   
1 40484U 15011C   26168.25004630 -.00000762  00000+0  00000+0 0  9995
2 40484  72.2030 348.7771 8324414 167.4415 304.9271  0.28311460  1380
MMS 4                   
1 40485U 15011D   26168.25004630 -.00000762  00000+0  00000+0 0  9996
2 40485  72.2030 348.7771 8324414 167.4415 304.9271  0.28311460  1381
ASTROSAT                
1 40930U 15052A   26168.02421201  .00001422  00000+0  91470-4 0  9997
2 40930   5.9955 156.5222 0007811  29.1364 330.9199 14.82507303579802
DAMPE                   
1 41173U 15078A   26168.16840861  .00000881  00000+0  32167-4 0  9993
2 41173  97.4549 173.6351 0013811  77.2828 282.9956 15.30784978584549
PISAT                   
1 41784U 16059B   26168.00778100  .00000691  00000+0  12534-3 0  9994
2 41784  97.8179 168.4682 0028366 203.3501 156.6419 14.68983223519712
HXMT (HUIYAN)           
1 42758U 17034A   26168.20012907  .00002035  00000+0  10750-3 0  9990
2 42758  43.0125 182.9690 0030594 147.2321 213.0432 15.18477026497667
FLYING LAPTOP           
1 42831U 17042G   26168.18552553  .00002102  00000+0  16791-3 0  9990
2 42831  97.4687 323.7174 0019599 121.7521 238.5617 15.01143957486455
ZHANGHENG 1-01 (CSES-1) 
1 43194U 18015C   26168.20478691  .00006170  00000+0  28206-3 0  9990
2 43194  97.6871 333.8621 0017049 266.3414  93.5871 15.20811548464646
SALSAT                  
1 46495U 20068K   26168.01469823  .00006653  00000+0  23324-3 0  9996
2 46495  97.8847 171.0688 0008038 308.8582  51.1939 15.29798435315333
IXPE                    
1 49954U 21121A   26168.16668980  .00010947  00000+0  59401-3 0  9997
2 49954   0.2319 318.0499 0006857  76.2834 126.0993 15.10248628  5561
SMILE                   
1 69123U 26109A   26158.38327019 -.00000041  00000+0 -36778-3 0  9994
2 69123  69.9787 209.3069 3310191 288.5544  45.7342  7.54049028  2480
