OBJECT_NAME,OBJECT_ID,EPOCH,MEAN_MOTION,ECCENTRICITY,INCLINATION,RA_OF_ASC_NODE,ARG_OF_PERICENTER,MEAN_ANOMALY,EPHEMERIS_TYPE,CLASSIFICATION_TYPE,NORAD_CAT_ID,ELEMENT_SET_NO,REV_AT_EPOCH,BSTAR,MEAN_MOTION_DOT,MEAN_MOTION_DDOT
SWARM A,2013-067B,2026-06-17T03:43:24.496032,15.50953053,.0003011,87.3323,56.2540,95.2164,264.9441,0,U,39452,999,70624,.14286E-3,.8317E-4,0
SWARM C,2013-067C,2026-06-17T03:43:14.712960,15.50951547,.0002997,87.3323,54.8350,95.3573,264.8030,0,U,39453,999,70620,.14214E-3,.8275E-4,0
BRITE-CA1 (TORONTO),2014-033L,2026-06-17T02:32:14.956224,14.72676636,.0077213,97.9739,297.0351,277.2847,81.9589,0,U,40020,999,64220,.96897E-4,.592E-5,0
OCO 2,2014-035A,2026-06-17T03:43:53.641344,14.57111126,.0001499,98.2018,109.4490,85.1950,274.9420,0,U,40059,999,63604,.77761E-4,.305E-5,0
BRITE-PL2 (HEWELIUSZ),2014-049B,2026-06-16T07:14:54.075264,14.94590565,.0015255,97.9097,279.2951,111.1162,249.1690,0,U,40119,999,64131,.13759E-3,.1432E-4,0
MMS 1,2015-011A,2026-06-17T06:00:04.000320,0.28316255,.8324646,72.2024,348.7735,167.4346,304.9453,0,U,40482,999,138,0,-.762E-5,0
MMS 2,2015-011B,2026-06-17T06:00:04.000320,0.28316304,.8325428,72.2026,348.7757,167.4402,304.9339,0,U,40483,999,138,0,-.762E-5,0
MMS 3,2015-011C,2026-06-17T06:00:04.000320,0.28311460,.8324414,72.2030,348.7771,167.4415,304.9271,0,U,40484,999,138,0,-.762E-5,0
MMS 4,2015-011D,2026-06-17T06:00:04.000320,0.28311460,.8324414,72.2030,348.7771,167.4415,304.9271,0,U,40485,999,138,0,-.762E-5,0
ASTROSAT,2015-052A,2026-06-17T00:34:51.917664,14.82507303,.0007811,5.9955,156.5222,29.1364,330.9199,0,U,40930,999,57980,.9147E-4,.1422E-4,0
DAMPE,2015-078A,2026-06-17T04:02:30.503904,15.30784978,.0013811,97.4549,173.6351,77.2828,282.9956,0,U,41173,999,58454,.32167E-4,.881E-5,0
PISAT,2016-059B,2026-06-17T00:11:12.278400,14.68983223,.0028366,97.8179,168.4682,203.3501,156.6419,0,U,41784,999,51971,.12534E-3,.691E-5,0
HXMT (HUIYAN),2017-034A,2026-06-17T04:48:11.151648,15.18477026,.0030594,43.0125,182.9690,147.2321,213.0432,0,U,42758,999,49766,.1075E-3,.2035E-4,0
FLYING LAPTOP,2017-042G,2026-06-17T04:27:09.405792,15.01143957,.0019599,97.4687,323.7174,121.7521,238.5617,0,U,42831,999,48645,.16791E-3,.2102E-4,0
ZHANGHENG 1-01 (CSES-1),2018-015C,2026-06-17T04:54:53.589024,15.20811548,.0017049,97.6871,333.8621,266.3414,93.5871,0,U,43194,999,46464,.28206E-3,.617E-4,0
SALSAT,2020-068K,2026-06-17T00:21:09.927072,15.29798435,.0008038,97.8847,171.0688,308.8582,51.1939,0,U,46495,999,31533,.23324E-3,.6653E-4,0
IXPE,2021-121A,2026-06-17T04:00:01.998720,15.10248628,.0006857,0.2319,318.0499,76.2834,126.0993,0,U,49954,999,556,.59401E-3,.10947E-3,0
SMILE,2026-109A,2026-06-07T09:11:54.544416,7.54049028,.3310191,69.9787,209.3069,288.5544,45.7342,0,U,69123,999,248,-.36778E-3,-.41E-6,0
